{
    "links": {
        "self": "http://www.neowsapp.com/rest/v1/neo/3745640?api_key=iIulBulltgU6a56xZRHN4H3l9WmuAYTsLGpBGhQ2"
    },
    "id": "3745640",
    "neo_reference_id": "3745640",
    "name": "(2016 ET28)",
    "designation": "2016 ET28",
    "nasa_jpl_url": "http://ssd.jpl.nasa.gov/sbdb.cgi?sstr=3745640",
    "absolute_magnitude_h": 21.8,
    "estimated_diameter": {
        "kilometers": {
            "estimated_diameter_min": 0.1160259082,
            "estimated_diameter_max": 0.2594418179
        },
        "meters": {
            "estimated_diameter_min": 116.0259082094,
            "estimated_diameter_max": 259.4418179074
        },
        "miles": {
            "estimated_diameter_min": 0.0720951346,
            "estimated_diameter_max": 0.1612096218
        },
        "feet": {
            "estimated_diameter_min": 380.6624406898,
            "estimated_diameter_max": 851.1870938635
        }
    },
    "is_potentially_hazardous_asteroid": false,
    "close_approach_data": [
        {
            "close_approach_date": "2015-11-13",
            "close_approach_date_full": "2015-Nov-13 22:35",
            "epoch_date_close_approach": 1447454100000,
            "relative_velocity": {
                "kilometers_per_second": "15.1814817121",
                "kilometers_per_hour": "54653.3341636374",
                "miles_per_hour": "33959.4564418446"
            },
            "miss_distance": {
                "astronomical": "0.3841480483",
                "lunar": "149.4335907887",
                "kilometers": "57467729.790337121",
                "miles": "35708791.4530534298"
            },
            "orbiting_body": "Earth"
        },
        {
            "close_approach_date": "2016-02-04",
            "close_approach_date_full": "2016-Feb-04 09:53",
            "epoch_date_close_approach": 1454579580000,
            "relative_velocity": {
                "kilometers_per_second": "6.9496191428",
                "kilometers_per_hour": "25018.6289140287",
                "miles_per_hour": "15545.6030604974"
            },
            "miss_distance": {
                "astronomical": "0.4569484183",
                "lunar": "177.7529347187",
                "kilometers": "68358510.077549021",
                "miles": "42476008.5235016498"
            },
            "orbiting_body": "Earth"
        }
    ],
    "orbital_data": {
        "orbit_id": "4",
        "orbit_determination_date": "2017-04-06 08:27:44",
        "first_observation_date": "2016-03-03",
        "last_observation_date": "2016-03-18",
        "data_arc_in_days": 15,
        "observations_used": 14,
        "orbit_uncertainty": "8",
        "minimum_orbit_intersection": ".336015",
        "jupiter_tisserand_invariant": "3.005",
        "epoch_osculation": "2457452.5",
        "eccentricity": ".5965028847067499",
        "semi_major_axis": "2.721787988708054",
        "inclination": "19.73515304286364",
        "ascending_node_longitude": "11.75404594934876",
        "orbital_period": "1640.136020565962",
        "perihelion_distance": "1.098233601883517",
        "perihelion_argument": "84.28818516302913",
        "aphelion_distance": "4.345342375532592",
        "perihelion_time": "2457372.602007385460",
        "mean_anomaly": "17.53712922621445",
        "mean_motion": ".2194939904287784",
        "equinox": "J2000",
        "orbit_class": {
            "orbit_class_type": "AMO",
            "orbit_class_description": "Near-Earth asteroid orbits similar to that of 1221 Amor",
            "orbit_class_range": "1.017 AU < q (perihelion) < 1.3 AU"
        }
    },
    "is_sentry_object": false
}